CCSDS_OMM_VERS = 2.0
CREATION_DATE  = 
ORIGINATOR     = 

OBJECT_NAME    = COSMOS 2058
OBJECT_ID      = 1990-010A
CENTER_NAME    = EARTH
REF_FRAME      = TEME
TIME_SYSTEM    = UTC
MEAN_ELEMENT_THEORY = SGP/SGP4

EPOCH          = 2026-04-05T06:17:20.200704
MEAN_MOTION    = 15.11596258
ECCENTRICITY   = .000815
INCLINATION    = 82.4730
RA_OF_ASC_NODE = 21.2470
ARG_OF_PERICENTER = 235.6862
MEAN_ANOMALY   = 124.3598

EPHEMERIS_TYPE = 0
CLASSIFICATION_TYPE = U
NORAD_CAT_ID   = 20465
ELEMENT_SET_NO = 999
REV_AT_EPOCH   = 94625
BSTAR          = .35896E-3
MEAN_MOTION_DOT = .6125E-4
MEAN_MOTION_DDOT = 0

CCSDS_OMM_VERS = 2.0
CREATION_DATE  = 
ORIGINATOR     = 

OBJECT_NAME    = SL-14 R/B
OBJECT_ID      = 1990-010B
CENTER_NAME    = EARTH
REF_FRAME      = TEME
TIME_SYSTEM    = UTC
MEAN_ELEMENT_THEORY = SGP/SGP4

EPOCH          = 2026-04-05T11:06:43.618176
MEAN_MOTION    = 14.83597450
ECCENTRICITY   = .0019109
INCLINATION    = 82.5008
RA_OF_ASC_NODE = 242.2336
ARG_OF_PERICENTER = 207.9130
MEAN_ANOMALY   = 152.1061

EPHEMERIS_TYPE = 0
CLASSIFICATION_TYPE = U
NORAD_CAT_ID   = 20466
ELEMENT_SET_NO = 999
REV_AT_EPOCH   = 93245
BSTAR          = .85551E-4
MEAN_MOTION_DOT = .731E-5
MEAN_MOTION_DDOT = 0

CCSDS_OMM_VERS = 2.0
CREATION_DATE  = 
ORIGINATOR     = 

OBJECT_NAME    = SL-14 R/B
OBJECT_ID      = 1990-018B
CENTER_NAME    = EARTH
REF_FRAME      = TEME
TIME_SYSTEM    = UTC
MEAN_ELEMENT_THEORY = SGP/SGP4

EPOCH          = 2026-04-05T08:54:55.287072
MEAN_MOTION    = 14.82173285
ECCENTRICITY   = .0016339
INCLINATION    = 82.5244
RA_OF_ASC_NODE = 198.1572
ARG_OF_PERICENTER = 9.4121
MEAN_ANOMALY   = 350.7396

EPHEMERIS_TYPE = 0
CLASSIFICATION_TYPE = U
NORAD_CAT_ID   = 20511
ELEMENT_SET_NO = 999
REV_AT_EPOCH   = 92653
BSTAR          = .75896E-4
MEAN_MOTION_DOT = .629E-5
MEAN_MOTION_DDOT = 0

CCSDS_OMM_VERS = 2.0
CREATION_DATE  = 
ORIGINATOR     = 

OBJECT_NAME    = HST
OBJECT_ID      = 1990-037B
CENTER_NAME    = EARTH
REF_FRAME      = TEME
TIME_SYSTEM    = UTC
MEAN_ELEMENT_THEORY = SGP/SGP4

EPOCH          = 2026-04-05T10:19:58.364832
MEAN_MOTION    = 15.29939841
ECCENTRICITY   = .0002245
INCLINATION    = 28.4723
RA_OF_ASC_NODE = 217.5234
ARG_OF_PERICENTER = 68.4258
MEAN_ANOMALY   = 291.6577

EPHEMERIS_TYPE = 0
CLASSIFICATION_TYPE = U
NORAD_CAT_ID   = 20580
ELEMENT_SET_NO = 999
REV_AT_EPOCH   = 77741
BSTAR          = .32228E-3
MEAN_MOTION_DOT = .9853E-4
MEAN_MOTION_DDOT = 0

CCSDS_OMM_VERS = 2.0
CREATION_DATE  = 
ORIGINATOR     = 

OBJECT_NAME    = SL-16 R/B
OBJECT_ID      = 1990-046B
CENTER_NAME    = EARTH
REF_FRAME      = TEME
TIME_SYSTEM    = UTC
MEAN_ELEMENT_THEORY = SGP/SGP4

EPOCH          = 2026-04-05T11:44:40.977888
MEAN_MOTION    = 14.15019435
ECCENTRICITY   = .001658
INCLINATION    = 70.9989
RA_OF_ASC_NODE = 241.6246
ARG_OF_PERICENTER = 264.8867
MEAN_ANOMALY   = 95.0364

EPHEMERIS_TYPE = 0
CLASSIFICATION_TYPE = U
NORAD_CAT_ID   = 20625
ELEMENT_SET_NO = 999
REV_AT_EPOCH   = 85218
BSTAR          = .2091E-4
MEAN_MOTION_DOT = -.7E-7
MEAN_MOTION_DDOT = 0

CCSDS_OMM_VERS = 2.0
CREATION_DATE  = 
ORIGINATOR     = 

OBJECT_NAME    = COSMOS 2084
OBJECT_ID      = 1990-055A
CENTER_NAME    = EARTH
REF_FRAME      = TEME
TIME_SYSTEM    = UTC
MEAN_ELEMENT_THEORY = SGP/SGP4

EPOCH          = 2026-04-05T11:39:18.624672
MEAN_MOTION    = 15.05822193
ECCENTRICITY   = .0012792
INCLINATION    = 62.7899
RA_OF_ASC_NODE = 244.1722
ARG_OF_PERICENTER = 199.3250
MEAN_ANOMALY   = 160.7367

EPHEMERIS_TYPE = 0
CLASSIFICATION_TYPE = U
NORAD_CAT_ID   = 20663
ELEMENT_SET_NO = 999
REV_AT_EPOCH   = 94035
BSTAR          = .28833E-3
MEAN_MOTION_DOT = .401E-4
MEAN_MOTION_DDOT = 0

CCSDS_OMM_VERS = 2.0
CREATION_DATE  = 
ORIGINATOR     = 

OBJECT_NAME    = SL-6 R/B(2)
OBJECT_ID      = 1990-055D
CENTER_NAME    = EARTH
REF_FRAME      = TEME
TIME_SYSTEM    = UTC
MEAN_ELEMENT_THEORY = SGP/SGP4

EPOCH          = 2026-04-05T12:07:20.900064
MEAN_MOTION    = 15.03732466
ECCENTRICITY   = .0029201
INCLINATION    = 62.7826
RA_OF_ASC_NODE = 162.6521
ARG_OF_PERICENTER = 352.9884
MEAN_ANOMALY   = 7.0802

EPHEMERIS_TYPE = 0
CLASSIFICATION_TYPE = U
NORAD_CAT_ID   = 20666
ELEMENT_SET_NO = 999
REV_AT_EPOCH   = 94222
BSTAR          = .20501E-3
MEAN_MOTION_DOT = .2649E-4
MEAN_MOTION_DDOT = 0

CCSDS_OMM_VERS = 2.0
CREATION_DATE  = 
ORIGINATOR     = 

OBJECT_NAME    = SL-8 R/B
OBJECT_ID      = 1990-078B
CENTER_NAME    = EARTH
REF_FRAME      = TEME
TIME_SYSTEM    = UTC
MEAN_ELEMENT_THEORY = SGP/SGP4

EPOCH          = 2026-04-05T10:43:20.789760
MEAN_MOTION    = 14.89867278
ECCENTRICITY   = .0357372
INCLINATION    = 82.9045
RA_OF_ASC_NODE = 227.2286
ARG_OF_PERICENTER = 283.6799
MEAN_ANOMALY   = 72.4874

EPHEMERIS_TYPE = 0
CLASSIFICATION_TYPE = U
NORAD_CAT_ID   = 20775
ELEMENT_SET_NO = 999
REV_AT_EPOCH   = 81328
BSTAR          = .43511E-3
MEAN_MOTION_DOT = .14697E-3
MEAN_MOTION_DDOT = 0

CCSDS_OMM_VERS = 2.0
CREATION_DATE  = 
ORIGINATOR     = 

OBJECT_NAME    = SL-8 R/B
OBJECT_ID      = 1991-006B
CENTER_NAME    = EARTH
REF_FRAME      = TEME
TIME_SYSTEM    = UTC
MEAN_ELEMENT_THEORY = SGP/SGP4

EPOCH          = 2026-04-05T12:15:09.569952
MEAN_MOTION    = 13.77498945
ECCENTRICITY   = .0021403
INCLINATION    = 82.9433
RA_OF_ASC_NODE = 150.1043
ARG_OF_PERICENTER = 322.9536
MEAN_ANOMALY   = 151.1164

EPHEMERIS_TYPE = 0
CLASSIFICATION_TYPE = U
NORAD_CAT_ID   = 21088
ELEMENT_SET_NO = 999
REV_AT_EPOCH   = 76776
BSTAR          = .11368E-3
MEAN_MOTION_DOT = .128E-5
MEAN_MOTION_DDOT = 0

CCSDS_OMM_VERS = 2.0
CREATION_DATE  = 
ORIGINATOR     = 

OBJECT_NAME    = OKEAN-3
OBJECT_ID      = 1991-039A
CENTER_NAME    = EARTH
REF_FRAME      = TEME
TIME_SYSTEM    = UTC
MEAN_ELEMENT_THEORY = SGP/SGP4

EPOCH          = 2026-04-05T13:00:07.448832
MEAN_MOTION    = 15.04976489
ECCENTRICITY   = .0012962
INCLINATION    = 82.5151
RA_OF_ASC_NODE = 310.8231
ARG_OF_PERICENTER = 237.4790
MEAN_ANOMALY   = 122.5185

EPHEMERIS_TYPE = 0
CLASSIFICATION_TYPE = U
NORAD_CAT_ID   = 21397
ELEMENT_SET_NO = 999
REV_AT_EPOCH   = 86907
BSTAR          = .29163E-3
MEAN_MOTION_DOT = .4168E-4
MEAN_MOTION_DDOT = 0

CCSDS_OMM_VERS = 2.0
CREATION_DATE  = 
ORIGINATOR     = 

OBJECT_NAME    = COSMOS 2151
OBJECT_ID      = 1991-042A
CENTER_NAME    = EARTH
REF_FRAME      = TEME
TIME_SYSTEM    = UTC
MEAN_ELEMENT_THEORY = SGP/SGP4

EPOCH          = 2026-04-05T11:55:58.346976
MEAN_MOTION    = 15.00233445
ECCENTRICITY   = .001165
INCLINATION    = 82.4964
RA_OF_ASC_NODE = 57.8096
ARG_OF_PERICENTER = 337.1293
MEAN_ANOMALY   = 22.9410

EPHEMERIS_TYPE = 0
CLASSIFICATION_TYPE = U
NORAD_CAT_ID   = 21422
ELEMENT_SET_NO = 999
REV_AT_EPOCH   = 86721
BSTAR          = .28171E-3
MEAN_MOTION_DOT = .3554E-4
MEAN_MOTION_DDOT = 0

CCSDS_OMM_VERS = 2.0
CREATION_DATE  = 
ORIGINATOR     = 

OBJECT_NAME    = SL-14 R/B
OBJECT_ID      = 1991-042B
CENTER_NAME    = EARTH
REF_FRAME      = TEME
TIME_SYSTEM    = UTC
MEAN_ELEMENT_THEORY = SGP/SGP4

EPOCH          = 2026-04-05T08:42:15.990048
MEAN_MOTION    = 14.81858653
ECCENTRICITY   = .0017835
INCLINATION    = 82.4961
RA_OF_ASC_NODE = 195.1772
ARG_OF_PERICENTER = 149.3558
MEAN_ANOMALY   = 210.8702

EPHEMERIS_TYPE = 0
CLASSIFICATION_TYPE = U
NORAD_CAT_ID   = 21423
ELEMENT_SET_NO = 999
REV_AT_EPOCH   = 85702
BSTAR          = .79487E-4
MEAN_MOTION_DOT = .653E-5
MEAN_MOTION_DDOT = 0

