COSMOS 2058             
1 20465U 90010A   26095.26203936  .00006125  00000+0  35896-3 0  9997
2 20465  82.4730  21.2470 0008150 235.6862 124.3598 15.11596258946256
SL-14 R/B               
1 20466U 90010B   26095.46300484  .00000731  00000+0  85551-4 0  9997
2 20466  82.5008 242.2336 0019109 207.9130 152.1061 14.83597450932452
SL-14 R/B               
1 20511U 90018B   26095.37147323  .00000629  00000+0  75896-4 0  9994
2 20511  82.5244 198.1572 0016339   9.4121 350.7396 14.82173285926537
HST                     
1 20580U 90037B   26095.43053663  .00009853  00000+0  32228-3 0  9990
2 20580  28.4723 217.5234 0002245  68.4258 291.6577 15.29939841777417
SL-16 R/B               
1 20625U 90046B   26095.48936317 -.00000007  00000+0  20910-4 0  9990
2 20625  70.9989 241.6246 0016580 264.8867  95.0364 14.15019435852189
COSMOS 2084             
1 20663U 90055A   26095.48563223  .00004010  00000+0  28833-3 0  9992
2 20663  62.7899 244.1722 0012792 199.3250 160.7367 15.05822193940359
SL-6 R/B(2)             
1 20666U 90055D   26095.50510301  .00002649  00000+0  20501-3 0  9997
2 20666  62.7826 162.6521 0029201 352.9884   7.0802 15.03732466942222
SL-8 R/B                
1 20775U 90078B   26095.44676840  .00014697  00000+0  43511-3 0  9999
2 20775  82.9045 227.2286 0357372 283.6799  72.4874 14.89867278813285
SL-8 R/B                
1 21088U 91006B   26095.51052743  .00000128  00000+0  11368-3 0  9996
2 21088  82.9433 150.1043 0021403 322.9536 151.1164 13.77498945767763
OKEAN-3                 
1 21397U 91039A   26095.54175288  .00004168  00000+0  29163-3 0  9998
2 21397  82.5151 310.8231 0012962 237.4790 122.5185 15.04976489869073
COSMOS 2151             
1 21422U 91042A   26095.49720309  .00003554  00000+0  28171-3 0  9991
2 21422  82.4964  57.8096 0011650 337.1293  22.9410 15.00233445867211
SL-14 R/B               
1 21423U 91042B   26095.36268507  .00000653  00000+0  79487-4 0  9999
2 21423  82.4961 195.1772 0017835 149.3558 210.8702 14.81858653857026
